NAVSTAR 77 (USA 289)    
1 43873U 18109A   24034.52338433 -.00000008  00000+0  00000+0 0  9995
2 43873  55.2449 126.3508 0028703 193.2572 204.1452  2.00573604 37689
